SAR-LUPE 2              
1 31797U 07030A   26162.85815119  .00012862  00000+0  23620-3 0  9996
2 31797  98.1034 266.6347 0006261 150.2284 209.9322 15.49393516 56111
SAPPHIRE                
1 39088U 13009C   26162.79380795  .00000096  00000+0  48536-4 0  9990
2 39088  98.4259 342.3778 0009982 264.6194  95.3853 14.35239034695806
PRAETORIAN SDA_602      
1 65565U 25203A   26162.67561647  .00000049  00000+0  33469-4 0  9999
2 65565  81.3034  15.8748 0005484 199.6994 160.3951 13.84342255 37933
PRAETORIAN SDA_603      
1 65566U 25203B   26162.70056172  .00000165  00000+0  13819-3 0  9991
2 65566  81.3037  15.7645 0009073 202.7600 157.3156 13.83905675 37944
PRAETORIAN SDA_604      
1 65567U 25203C   26162.64453553  .00000073  00000+0  56095-4 0  9991
2 65567  81.3057  16.2201 0004978 207.8342 152.2549 13.83047087 37910
PRAETORIAN SDA_605      
1 65568U 25203D   26162.68373903  .00000051  00000+0  35381-4 0  9997
2 65568  81.3022  15.8522 0007804 198.2926 161.7951 13.83433808 37930
PRAETORIAN SDA_606      
1 65569U 25203E   26162.66617987  .00000059  00000+0  42554-4 0  9997
2 65569  81.3057  16.0879 0005412 196.6767 163.4212 13.83406817 37923
PRAETORIAN SDA_607      
1 65570U 25203F   26162.67770779  .00000273  00000+0  23373-3 0  9994
2 65570  81.3039  15.7489 0008365 202.9224 157.1560 13.84284642 37946
PRAETORIAN SDA_608      
1 65571U 25203G   26162.72555102  .00000059  00000+0  42753-4 0  9998
2 65571  81.3009  15.8642 0005496 206.7431 153.3443 13.83816385 37931
PRAETORIAN SDA_609      
1 65572U 25203H   26162.73204161  .00000193  00000+0  16268-3 0  9996
2 65572  81.3052  15.8419 0006331 200.0925 159.9984 13.84251079 37943
PRAETORIAN SDA_610      
1 65573U 25203J   26162.70544441  .00000055  00000+0  38590-4 0  9992
2 65573  81.3010  15.8410 0006165 204.0192 156.0677 13.83851531 37938
PRAETORIAN SDA_611      
1 65574U 25203K   26162.70407639  .00000483  00000+0  42925-3 0  9991
2 65574  81.3017  16.0037 0005089 210.5635 149.5226 13.83309350 37925
PRAETORIAN SDA_612      
1 65575U 25203L   26162.70053259  .00000157  00000+0  12817-3 0  9992
2 65575  81.3031  15.6067 0008808 202.3278 157.7496 13.85038677 37950
PRAETORIAN SDA_613      
1 65576U 25203M   26162.70866675  .00000055  00000+0  39927-4 0  9996
2 65576  81.3002  15.9920 0005265 199.4730 160.6226 13.82764655 37923
PRAETORIAN SDA_614      
1 65577U 25203N   26162.68867557  .00000046  00000+0  30586-4 0  9996
2 65577  81.3018  15.6940 0006720 199.1242 160.9664 13.84777839 37954
PRAETORIAN SDA_615      
1 65578U 25203P   26162.73647653  .00000120  00000+0  96385-4 0  9998
2 65578  81.3024  15.6100 0008591 200.8934 159.1873 13.84435922 37952
PRAETORIAN SDA_616      
1 65579U 25203Q   26162.70312579  .00000213  00000+0  18320-3 0  9997
2 65579  81.3064  16.1458 0004981 208.3175 151.7711 13.83267908 37920
PRAETORIAN SDA_617      
1 65580U 25203R   26162.72426303  .00000037  00000+0  22632-4 0  9998
2 65580  81.3039  15.9580 0006968 199.5036 160.5855 13.83149902 37932
PRAETORIAN SDA_618      
1 65581U 25203S   26162.70344400  .00000220  00000+0  18492-3 0  9996
2 65581  81.3022  15.5724 0009326 203.1810 156.8927 13.84669653 37955
PRAETORIAN SDA_619      
1 65582U 25203T   26162.73597155  .00000130  00000+0  10642-3 0  9996
2 65582  81.3046  15.8307 0007758 201.3208 158.7626 13.83805894 38574
PRAETORIAN SDA_620      
1 65583U 25203U   26162.69090897  .00000199  00000+0  16947-3 0  9992
2 65583  81.3031  15.8926 0007248 196.1448 163.9478 13.83618066 37932
PRAETORIAN SDA_621      
1 65584U 25203V   26162.66542321  .00000058  00000+0  41334-4 0  9997
2 65584  81.3024  15.8362 0007052 194.0974 165.9987 13.83800813 37933
PRAETORIAN SDA_601      
1 65585U 25203W   26162.70586505  .00000353  00000+0  31173-3 0  9992
2 65585  81.3050  16.0894 0004948 212.0317 148.0539 13.83167314 37925
